Satellite: SO-50
Catalog number: 27607
Epoch time:      08030.48624407
Element set:     517
Inclination:      064.5588 deg
RA of node:       114.8580 deg
Eccentricity:    0.0078711
Arg of perigee:   307.0639 deg
Mean anomaly:     052.3254 deg
Mean motion:   14.71321969 rev/day
Decay rate:      -1.04e-06 rev/day^2
Epoch rev:           27456
Checksum:              305

Satellite: CO-55
Catalog number: 27844
Epoch time:      08030.75236195
Element set:     224
Inclination:      098.7174 deg
RA of node:       040.9272 deg
Eccentricity:    0.0010099
Arg of perigee:   151.5335 deg
Mean anomaly:     208.6379 deg
Mean motion:   14.20557591 rev/day
Decay rate:        4.2e-07 rev/day^2
Epoch rev:           23778
Checksum:              312

Satellite: CO-57
Catalog number: 27848
Epoch time:      08030.52065068
Element set:    0180
Inclination:      098.7175 deg
RA of node:       039.8242 deg
Eccentricity:    0.0009882
Arg of perigee:   156.0960 deg
Mean anomaly:     204.0671 deg
Mean motion:   14.20369701 rev/day
Decay rate:       -7.0e-08 rev/day^2
Epoch rev:           23772
Checksum:              306

Satellite: AO-51
Catalog number: 28375
Epoch time:      08029.51152404
Element set:    0019
Inclination:      098.0863 deg
RA of node:       061.8347 deg
Eccentricity:    0.0083037
Arg of perigee:   216.3993 deg
Mean anomaly:     143.1534 deg
Mean motion:   14.40595198 rev/day
Decay rate:        6.0e-08 rev/day^2
Epoch rev:           18829
Checksum:              312

Satellite: CO-56
Catalog number: 28941
Epoch time:      08031.72816562
Element set:     807
Inclination:      098.1045 deg
RA of node:       124.5453 deg
Eccentricity:    0.0192398
Arg of perigee:   177.8667 deg
Mean anomaly:     182.3416 deg
Mean motion:   15.49293840 rev/day
Decay rate:     2.2861e-04 rev/day^2
Epoch rev:           10870
Checksum:              337

Satellite: HO-59
Catalog number: 29484
Epoch time:      08031.69365263
Element set:      89
Inclination:      098.2513 deg
RA of node:       124.3047 deg
Eccentricity:    0.0135595
Arg of perigee:   154.4812 deg
Mean anomaly:     206.3217 deg
Mean motion:   15.72772878 rev/day
Decay rate:     7.3247e-04 rev/day^2
Epoch rev:            7671
Checksum:              339

Satellite: NO-61
Catalog number: 29664
Epoch time:      07359.16654419
Element set:     738
Inclination:      051.6179 deg
RA of node:       150.0690 deg
Eccentricity:    0.0003189
Arg of perigee:   248.8461 deg
Mean anomaly:     111.8136 deg
Mean motion:   16.51627846 rev/day
Decay rate:  1.4620719e-01 rev/day^2
Epoch rev:            5877
Checksum:              345

Satellite: CP4
Catalog number: 31122
Epoch time:      08030.67104782
Element set:    0251
Inclination:      098.0573 deg
RA of node:       101.3013 deg
Eccentricity:    0.0086327
Arg of perigee:   039.7274 deg
Mean anomaly:     321.0147 deg
Mean motion:   14.55082084 rev/day
Decay rate:       5.51e-06 rev/day^2
Epoch rev:           04193
Checksum:              258

Satellite: CP3
Catalog number: 31128
Epoch time:      08030.67936795
Element set:    0246
Inclination:      098.0569 deg
RA of node:       099.8677 deg
Eccentricity:    0.0103374
Arg of perigee:   043.6511 deg
Mean anomaly:     317.2844 deg
Mean motion:   14.51908909 rev/day
Decay rate:       -4.7e-07 rev/day^2
Epoch rev:           04183
Checksum:              327

Satellite: LIBERT
Catalog number: 31129
Epoch time:      08031.69555126
Element set:     715
Inclination:      098.0587 deg
RA of node:       100.8720 deg
Eccentricity:    0.0103077
Arg of perigee:   040.6082 deg
Mean anomaly:     320.2697 deg
Mean motion:   14.51999856 rev/day
Decay rate:       3.39e-06 rev/day^2
Epoch rev:            4196
Checksum:              303

/EX
SB KEPS @ AMSAT  $ORB08031.W
Orbital Elements  08031.WEATHER

HR AMSAT ORBITAL ELEMENTS FOR WEATHER SATELLITES
FROM WA5QGD FORT WORTH,TX January 31, 2008
Send Subscribe/unsubscribe to KEPS at 
http://www.amsat.org/mailman/listinfo/keps
BID: ORB08031.W
TO ALL RADIO AMATEURS BT

Satellite: NOAA-10
Catalog number: 16969
Epoch time:      08030.56814286
Element set:    0987
Inclination:      098.7344 deg
RA of node:       052.7386 deg
Eccentricity:    0.0011845
Arg of perigee:   223.0965 deg
Mean anomaly:     136.9303 deg
Mean motion:   14.27349028 rev/day
Decay rate:        9.0e-08 rev/day^2
Epoch rev:           11166
Checksum:              320

Satellite: NOAA-11
Catalog number: 19531
Epoch time:      08031.26856432
Element set:      23
Inclination:      098.8011 deg
RA of node:       122.5156 deg
Eccentricity:    0.0012302
Arg of perigee:   100.4348 deg
Mean anomaly:     259.8204 deg
Mean motion:   14.14863566 rev/day
Decay rate:      -1.82e-06 rev/day^2
Epoch rev:           99840
Checksum:              277

Satellite: NOAA-12
Catalog number: 21263
Epoch time:      08031.42041136
Element set:     528
Inclination:      098.7649 deg
RA of node:       033.4017 deg
Eccentricity:    0.0012841
Arg of perigee:   162.0652 deg
Mean anomaly:     198.0994 deg
Mean motion:   14.25513798 rev/day
Decay rate:       -8.4e-07 rev/day^2
Epoch rev:           86876
Checksum:              308

Satellite: MET-3/5
Catalog number: 21655
Epoch time:      08030.92892448
Element set:    0388
Inclination:      082.5496 deg
RA of node:       202.0314 deg
Eccentricity:    0.0013829
Arg of perigee:   003.8399 deg
Mean anomaly:     356.2822 deg
Mean motion:   13.17014144 rev/day
Decay rate:        5.1e-07 rev/day^2
Epoch rev:           79138
Checksum:              303

Satellite: MET-2/21
Catalog number: 22782
Epoch time:      08030.65470348
Element set:    0052
Inclination:      082.5444 deg
RA of node:       221.4518 deg
Eccentricity:    0.0021743
Arg of perigee:   321.8306 deg
Mean anomaly:     038.1310 deg
Mean motion:   13.83624778 rev/day
Decay rate:       -1.0e-07 rev/day^2
Epoch rev:           72797
Checksum:              281

Satellite: OKEAN-4
Catalog number: 23317
Epoch time:      08030.83552546
Element set:    0494
Inclination:      082.5368 deg
RA of node:       084.1675 deg
Eccentricity:    0.0020849
Arg of perigee:   219.7798 deg
Mean anomaly:     140.1898 deg
Mean motion:   14.82573371 rev/day
Decay rate:        4.0e-07 rev/day^2
Epoch rev:           71778
Checksum:              332

Satellite: NOAA-14
Catalog number: 23455
Epoch time:      08030.83126586
Element set:    0000
Inclination:      098.9618 deg
RA of node:       102.9134 deg
Eccentricity:    0.0009709
Arg of perigee:   171.6798 deg
Mean anomaly:     188.4546 deg
Mean motion:   14.13733311 rev/day
Decay rate:       -3.1e-07 rev/day^2
Epoch rev:           67480
Checksum:              303

