SO-50
1 27607U 02058C   08030.48624407 -.00000104  00000-0  62465-5 0  5173
2 27607 064.5588 114.8580 0078711 307.0639 052.3254 14.71321969274567
CO-55
1 27844U 03031E   08030.75236195  .00000042  00000-0  39962-4 0  2241
2 27844 098.7174 040.9272 0010099 151.5335 208.6379 14.20557591237780
CO-57
1 27848U 03031J   08030.52065068 -.00000007  00000-0  16936-4 0 01808
2 27848 098.7175 039.8242 0009882 156.0960 204.0671 14.20369701237724
AO-51
1 28375U 04025K   08029.51152404  .00000006  00000-0  14583-4 0 00191
2 28375 098.0863 061.8347 0083037 216.3993 143.1534 14.40595198188299
CO-56
1 28941U 06005C   08031.72816562  .00022861  25528-5  19947-3 0  8071
2 28941 098.1045 124.5453 0192398 177.8667 182.3416 15.49293840108707
HO-59
1 29484U 06041F   08031.69365263  .00073247  41956-5  30892-3 0   898
2 29484 098.2513 124.3047 0135595 154.4812 206.3217 15.72772878 76717
NO-61
1 29664U 06055F   07359.16654419  .14620719  12705-4  12723-3 0  7381
2 29664 051.6179 150.0690 0003189 248.8461 111.8136 16.51627846 58777
CP4
1 31122U 07012F   08030.67104782  .00000551  00000-0  13192-3 0 02516
2 31122 098.0573 101.3013 0086327 039.7274 321.0147 14.55082084041932
CP3
1 31128U 07012M   08030.67936795 -.00000047  00000-0  00000-0 0 02465
2 31128 098.0569 099.8677 0103374 043.6511 317.2844 14.51908909041839
LIBERT
1 31129U 07012N   08031.69555126  .00000339  00000-0  89029-4 0  7150
2 31129 098.0587 100.8720 0103077 040.6082 320.2697 14.51999856 41967
NOAA-10
1 16969U 86073A   08030.56814286  .00000009  00000-0  22006-4 0 09876
2 16969 098.7344 052.7386 0011845 223.0965 136.9303 14.27349028111665
NOAA-11
1 19531U 88089A   08031.26856432 -.00000182  00000-0 -71677-4 0   233
2 19531 098.8011 122.5156 0012302 100.4348 259.8204 14.14863566998402
NOAA-12
1 21263U 91032A   08031.42041136 -.00000084  00000-0 -16661-4 0  5288
2 21263 098.7649 033.4017 0012841 162.0652 198.0994 14.25513798868765
MET-3/5
1 21655U 91056A   08030.92892448  .00000051  00000-0  10000-3 0 03889
2 21655 082.5496 202.0314 0013829 003.8399 356.2822 13.17014144791384
MET-2/21
1 22782U 93055A   08030.65470348 -.00000010  00000-0 -22556-4 0 00528
2 22782 082.5444 221.4518 0021743 321.8306 038.1310 13.83624778727970
OKEAN-4
1 23317U 94066A   08030.83552546  .00000040  00000-0  20159-5 0 04946
2 23317 082.5368 084.1675 0020849 219.7798 140.1898 14.82573371717789
NOAA-14
1 23455U 94089A   08030.83126586 -.00000031  00000-0  75710-5 0 00002
2 23455 098.9618 102.9134 0009709 171.6798 188.4546 14.13733311674804
